;id;vorname;nachname;aktiv;geschlecht;tel;email;alter;strasse;hausnr;stadt;plz;verein1;verein2;verein3
0;1;Jean;Willis;N;Male;(876) 483-7689;uvehiw@lu.bd;65;Pagul Terrace;65;Izuajzod;90382;2.0;9.0;11.0
1;2;Sylvia;Wheeler;Y;Male;(930) 772-9727;vivcuho@vov.gn;60;Wium Point;36;Lizcarda;43558;;9.0;18.0
2;3;Corey;Wells;1;Female;(614) 848-3778;bolhanza@pin.pr;63;Zejlem River;49;Hegolsoc;;4.0;1.0;6.0
3;4;Gertrude;Estrada;N;Male;(546) 721-7634;locez@puktiges.td;23;Maloz Mill;59;Cuegcew;10162;8.0;1.0;4.0
4;5;Louis;Pratt;N;Male;(766) 904-9447;vag@toclelapi.mx;22;Hotot Path;57;Deodeimu;4608;7.0;4.0;13.0
5;6;Elmer;Munoz;N;Male;(656) 381-6666;kotpalvuw@wiot.lu;26;Sakuk Turnpike;33;Nimvale;68292;9.0;13.0;12.0
6;7;Blanche;Ray;Y;Male;(716) 396-7471;ku@ju.pf;38;Acuk Key;38;Libbeze;24777;10.0;19.0;14.0
7;8;Luis;McKinney;N;Female;(311) 638-3393;su@kumoc.gf;37;Lojeg Park;45;Jujucenoz;75320;7.0;14.0;21.0
8;9;Bradley;Dawson;N;Male;(471) 243-4717;vah@;41;Hehfo Glen;;Otufuhor;20271;7.0;3.0;17.0
9;10;Julia;Norton;N;Male;(424) 729-8953;siuposap@sunsec.sb;65;Ivdi Park;48;Jefawne;99360;3.0;3.0;
10;11;Gary;Ryan;Y;Female;(441) 280-7022;cib@jojetse.mp;65;Vopan Point;38;Zineha;94410;10.0;17.0;5.0
11;12;Glenn;Ramos;Y;Female;(615) 922-8858;sibzosco@hikapre.tk;41;Sibu Square;21;Lalogeko;44354;5.0;19.0;29.0
12;13;Lottie;Colon;N;Male;(333) 855-9817;nacoko@luflucge.cy;34;Ujjic Ridge;44;Akalorkov;83636;6.0;8.0;14.0
13;14;Jerome;Young;Y;Male;(929) 312-1234;lonjop@zikabif.bi;33;Wivu Plaza;65;Momokini;64818;9.0;;26.0
14;15;Lillie;Pratt;N;Male;(370) 774-5451;bub@wadwap.bf;55;Rebej Square;64;Novjephud;30791;1.0;;20.0
15;16;Johanna;Barton;Y;Female;(649) 636-5179;pecidud@obu.cn;46;Mindur Loop;63;Bobooh;aaaaa;2.0;6.0;6.0
16;17;Lora;Franklin;Y;Male;(680) 637-7970;ro@tozbabjuh.cw;47;Lepvun Grove;43;Uheovjor;92571;8.0;6.0;1.0
17;18;Bernice;Ortiz;Y;Male;(517) 633-6780;vulbeti@wimzidup.st;48;Webdo Point;62;Sofudewo;6296;6.0;3.0;16.0
18;19;Miguel;Floyd;N;Male;(386) 254-2107;ecnivef@ruwcuba.ec;45;Otso Way;62;Zasfavak;59435;7.0;13.0;9.0
19;20;Lenora;Lloyd;Y;Female;(501) 716-1767;eci@cu.an;63;Siguk Street;29;Huhejju;80902;6.0;7.0;13.0
20;21;Hunter;Wise;N;Male;(920) 785-8070;sor@tasgis.ba;21;Epiiki Plaza;29;Asevabi;38544;;6.0;26.0
21;22;Miguel;Huff;N;Female;(417) 377-5342;dartiz@vopukav.tw;22;Ciptin Way;46;Bolebeof;67923;3.0;14.0;19.0
22;23;Raymond;Fuller;Y;Female;(879) 931-6483;mosedegi@locansu.om;58;Fada Park;19;Sofbonfoh;88272;10.0;5.0;17.0
23;24;Cole;Ramirez;N;Male;(729) 781-3965;bac@revuk.by;25;Zomif Park;42;Nevbukfuf;32965;2.0;20.0;8.0
24;25;Jane;Simpson;N;Male;(708) 451-4743;gu@go.ar;50;Tojuho Circle;33;Omhippu;15459;4.0;11.0;17.0
25;26;Louis;Burgess;N;Male;(856) 949-4490;otizcug@fopav.pg;49;Zilpav Avenue;63;Lecepuj;10378;6.0;12.0;19.0
26;27;Brent;Banks;N;Male;(486) 251-6309;lefifu@kuide.bw;56;Calez Highway;23;Raruted;36157;1.0;5.0;26.0
27;28;Eugenia;Mendez;N;Male;(342) 902-5683;dutwiloc@diivi.km;52;Comheh Place;49;Gohzecej;70037;10.0;;16.0
28;29;Sadie;Fox;Y;Male;(277) 777-4724;nados@juk.ru;50;Ezori Drive;52;Nevzezbig;86626;3.0;9.0;14.0
29;30;Charles;Richards;Y;Female;(415) 667-4182;jow@abe.cf;32;Esuho Boulevard;58;Tavnuklev;13744;6.0;11.0;29.0
30;31;Luella;Graves;N;Female;(582) 377-7137;pizkaok@ufas.gw;59;Fozug Heights;42;Ureijorar;44740;3.0;11.0;6.0
31;32;Landon;Rodriguez;Y;Male;(536) 557-5235;gujzikuz@zossi.no;19;Firuh Heights;63;Edufodni;92633;1.0;11.0;6.0
32;33;Justin;Burke;N;Male;(670) 427-3944;dofewan@gejoji.tw;22;Muvije Loop;34;Rewuimu;44008;8.0;19.0;7.0
33;34;Lester;Norris;Y;Female;(779) 838-7770;mahat@boj.ga;58;Epaga Manor;55;Adowev;78122;;18.0;29.0
34;35;Hannah;West;N;Female;(853) 684-6427;kodem@jo.bo;25;Hizuse Mill;25;Ecapozu;67301;7.0;14.0;20.0
35;36;Marvin;Perkins;Y;Male;(382) 641-5614;zutvuzgu@cob.sl;23;Pava Road;48;Utameli;36218;2.0;9.0;7.0
36;37;Viola;Chandler;N;Male;(422) 913-4682;mihgafsu@asozti.ar;44;Cumnah Road;31;Akcewha;1490;4.0;5.0;24.0
37;38;Jane;Burke;N;Male;(578) 742-6099;he@mo.gf;35;Dacsup Pike;36;Pugeha;96357;8.0;16.0;18.0
38;39;Catherine;Ramos;Y;Male;(602) 925-1795;heuzatar@difew.je;30;Lojor Park;23;Vufacvir;97033;;7.0;20.0
39;40;Jerry;Bowers;Y;Male;(340) 661-3255;log@velu.sn;38;Gimliz Avenue;29;Feblarne;75934;6.0;;30.0
40;41;Max;Manning;N;Male;(300) 678-7121;edvovkap@rouzmo.zw;47;Naca Extension;55;Hotegvaw;41832;10.0;16.0;23.0
41;42;Lewis;Butler;N;Female;(322) 268-8671;zo@raj.ht;59;Ifico Drive;43;Cikopa;43219;;14.0;17.0
42;43;Eula;Young;N;Female;(859) 583-1814;rehiku@hepru.pw;40;Noptof Glen;19;Vaphimol;36525;1.0;10.0;14.0
43;44;Milton;Brewer;Y;Female;(653) 267-8750;zabek@radat.mc;18;Mensu View;60;Ajuizzu;49492;7.0;6.0;17.0
44;45;Rosalie;Benson;Y;Female;(472) 370-1360;teplikiku@lofulog.bj;44;Afeano Highway;35;Berugepum;49551;5.0;10.0;2.0
45;46;Josephine;Pearson;N;Male;(558) 952-1279;cejir@udisigve.af.xxx;57;Zudel Extension;56;Cubokmil;89580;;6.0;22.0
46;47;Paul;Taylor;N;Female;(861) 849-7860;obefumsu@bejce.ne;60;Rane Turnpike;64;Zikiruz;77562;5.0;1.0;8.0
47;48;Matilda;Warner;Y;Male;(775) 564-4533;jugre@leujnuj.jm;62;Noshe Parkway;49;Caehfuw;8537;4.0;12.0;10.0
48;49;Adam;Hodges;N;Male;(381) 945-2224;koj@vonapfu.tj;42;Magor Parkway;40;Ubucubli;97604;4.0;8.0;11.0
49;50;Josephine;Hale;N;Male;(314) 473-7191;no;35;Kasov Key;40;Reraviuj;32758;2.0;16.0;10.0
50;51;Charles;Brown;N;Female;(980) 427-8571;hic@pir.sv;56;Navli Extension;22;Celizi;35701;9.0;1.0;24.0
51;52;Eugenia;Greer;;Female;(203) 853-8905;rof@awpijez.ly;26;Pihgi Drive;39;Suvicu;31238;1.0;7.0;16.0
52;53;Chase;Gutierrez;1;Female;(918) 453-9666;hudcovra@ze.km;32;Cejup Plaza;42;Falola;89819;7.0;18.0;11.0
53;54;Marcus;Maxwell;N;Female;(419) 403-3162;wo@wedono.sn;25;Hesbes Key;29;Muulne;68917;7.0;20.0;16.0
54;55;Evelyn;Boone;Y;Female;(751) 664-1569;bacenric@fiir.je;62;Pikga Way;31;Afimokgab;59507;8.0;1.0;4.0
55;56;Adele;Craig;Y;Female;(341) 480-4417;in@bofwo.br;37;Zanuf Manor;62;Epofazuf;74572;1.0;17.0;24.0
56;57;Alan;Atkins;N;Female;(559) 987-9413;dolimieb@wuzeubi.ms;25;Cujwuz Highway;52;Jipemtu;16293;;;19.0
57;58;Maude;Torres;N;Female;(223) 240-4093;gu@fotbewce.ve;53;Afvud Terrace;45;Caberoici;1612;7.0;;8.0
58;59;Curtis;Meyer;N;Female;(523) 339-7188;ige@riwfi.fm;24;Piazu Heights;133333;Gukasa;95183;;;26.0
59;60;Jay;Murray;Y;Female;(878) 916-6757;evidad@vigon.za;45;Maref Park;40;Uhivutfiz;9583;7.0;10.0;22.0
60;61;Marian;Day;N;Female;(221) 640-5930;itareme@zafiri.ss;49;Poja Path;23;Rintiko;7001;1.0;4.0;16.0
61;62;Travis;Caldwell;N;Female;(510) 615-2110;zifut@bibwu.io;57;Zirlal Road;28;Kuwbonbu;57023;9.0;7.0;20.0
62;63;Ethel;Little;N;Male;(639) 230-2649;budirvo@tikulu.mz;40;Oska Pass;30;Fatetu;20104;5.0;6.0;20.0
63;64;Ethel;Shelton;Y;Female;(845) 864-7095;loz@im.com;43;Cicup Circle;26;Vavimziv;5706;8.0;;
64;65;Birdie;Perry;N;Male;(919) 350-5051;nar@gemebe.bt;32;Bape Junction;20;Vukanvok;65518;;6.0;7.0
65;66;Terry;Green;N;Female;(970) 692-2465;govbipzos@vag.gb;31;Fetam River;52;Visebnuj;34776;9.0;8.0;5.0
66;67;Eugene;Allison;Y;Male;(505) 720-3868;mu@okjuce.sl;33;Mepri Road;20;Nehiege;92541;3.0;;30.0
67;68;Ronald;James;N;Female;(219) 236-1851;hamu@jicetes.fr;34;Waoso Plaza;51;Kimane;26569;;1.0;19.0
68;69;Bobby;Martinez;1;Female;(563) 517-9400;simmigci@moot.ci;42;Henog Grove;65;Bentuthif;83567;5.0;6.0;9.0
69;70;Joe;Buchanan;N;Female;(867) 379-1493;xxx;46;Nusfa Park;18;Ritozacod;51108;6.0;;15.0
70;71;Phillip;Murphy;N;Female;(344) 205-4662;surirdod@me.io;48;Moscu Heights;27;Tacenep;56569;2.0;8.0;4.0
71;72;Howard;Cobb;yes;Male;(601) 795-6827;lirmud@adikor.ar;43;Monmi Park;57;Tinavdam;15325;10.0;5.0;3.0
72;73;Ryan;Rodriquez;Y;Female;(380) 727-4887;cofuf@nedepig.nf;18;Zati Way;51;Ahanifwi;94511;5.0;15.0;12.0
73;74;Nicholas;Wise;Y;Female;(487) 764-5755;perah@oro.jm;46;Kiji Park;25;Poswolo;54091;1.0;1.0;13.0
74;75;Jessie;Ferguson;Y;Male;(924) 555-4624;te@mukfuw.am;53;Hesa Road;59;Pefkebak;98438;4.0;12.0;17.0
75;76;Iva;Wise;Y;Male;(859) 576-5893;luaba@bovfimuvi.vu;23;Mezu Manor;48;Akibigu;1337;8.0;8.0;12.0
76;77;Corey;Bailey;Y;Male;(731) 331-4298;gi@gis.as;65;Dodga Path;30;Uzmowubu;73726;1.0;2.0;15.0
77;78;Amanda;Miles;Y;Male;(223) 598-9185;vum@vazuzto.gu;30;Rodrer Point;52;Foczodon;85326;;13.0;
78;79;Sophie;Phelps;N;Female;(419) 911-9274;je@takusi.ac;46;Ocmi Key;47;Manteta;18563;10.0;18.0;7.0
79;80;Emily;Lloyd;N;Female;(950) 246-4027;ni@hednarfuv.nc;31;Zeak Place;50;Zogijuep;54608;10.0;16.0;1.0
80;81;Jesse;Alvarado;Y;Male;(373) 526-1248;lica@ma.kw;63;Niski Drive;26;Bejwupiku;88879;2.0;5.0;19.0
81;82;Tillie;Valdez;Y;Male;(857) 322-1814;ma@cewovu.gm;19;Tufuf Turnpike;50;Sibucovu;59590;;4.0;7.0
82;83;Rose;Pittman;Y;Female;(573) 428-5083;zu@id.cz;48;Jiiz Parkway;48;Usralaw;2217;2.0;6.0;12.0
83;84;Lily;King;N;Female;(774) 465-1746;tejhon@igu.bq;25;Samwo Drive;59;Wefuzlo;39857;3.0;5.0;9.0
84;85;Frances;Cain;N;Female;(259) 372-4817;tepniuzi@limrutab.al;31;Eczi Turnpike;39;Nimulup;92223;9.0;17.0;29.0
85;86;Caroline;Atkins;N;Male;(646) 512-2214;bompas@wah.cf;40;Jonbav Street;52;Maneduj;14548;2.0;11.0;2.0
86;87;Bryan;Clarke;Y;Female;(409) 985-3300;nivlidvib@jage.ky;46;Ugajeg Extension;57;Otojivoci;33929;;3.0;12.0
87;88;Blanche;Green;Y;Female;(627) 452-5449;tibducu@rah.cy;20;Gifza Point;23;Disikzu;27255;6.0;4.0;
88;89;Maurice;Todd;Y;Female;(237) 630-2950;sezvuk@en.bm;62;Sinco Manor;61;Pucfenkuk;14090;4.0;16.0;11.0
89;90;Lottie;Gregory;N;Female;(416) 605-3406;dadwovbo@tabasih.sz;63;Gioti Parkway;???;Olavuco;82868;8.0;18.0;27.0
90;91;Juan;Frazier;yes;Female;(455) 478-3487;hapam@la.mu;31;Ezpib Circle;34;Zewbise;99526;2.0;3.0;19.0
91;92;Beulah;Wong;Y;Female;(746) 698-2248;utoikupo@he.su;32;Belame Path;28;Woimozup;56573;8.0;5.0;25.0
92;93;Ella;Tran;N;Male;(682) 570-4706;suinu@fa.jm;52;Lipmun Drive;60;Foadigi;87351;10.0;15.0;21.0
93;94;Paul;Hall;N;Male;(641) 969-6940;mow@ba.ye;36;Nali Plaza;35;Nufbadpu;10698;1.0;13.0;15.0
94;95;Paul;Cooper;Y;Male;(629) 941-9762;pun@fa.cn;23;Vano Center;65;Rizhesik;35950;7.0;12.0;30.0
95;96;Pauline;Norris;Y;Female;(782) 919-6515;zetkacjig@asoanlum.mn;18;Koalu Highway;23;Jogzippug;89275;4.0;6.0;1.0
96;97;Jeffrey;Holloway;N;Female;(478) 964-7888;kikesgom@ha.se;63;Sege Park;40;Wulefa;56243;3.0;20.0;18.0
97;98;Paul;Walsh;N;Male;(405) 362-9849;wamag@zav.cg;57;Ecfu Ridge;32;Nobosud;14814;9.0;13.0;26.0
98;99;Max;Russell;Y;Female;(480) 259-8999;obgezev@ezubeluv.gm;37;Conni Pass;21;Vuhuluj;93223;1.0;7.0;9.0
99;100;Emily;Oliver;N;Male;(835) 492-6427;avu@birul.bs;20;Gaje View;39;Pofovebo;69211;7.0;3.0;
100;101;Katie;Walters;Y;Male;(602) 514-2829;aruwedvov@vet.pr;61;Wera Park;18;Fotirmi;46330;6.0;17.0;2.0
101;102;Ollie;Copeland;N;Female;(406) 960-9035;tir@ra.je;20;Jedi Way;29;Fihzolon;32124;7.0;17.0;18.0
102;103;Nellie;Obrien;N;Male;(400) 946-1239;awtasegi@uv.ac;38;Fetmus Center;49;Agarafvez;28821;3.0;16.0;13.0
103;104;Ida;Arnold;N;Male;(253) 449-2470;ana@nul.tm;51;Rucek Highway;45;Funonce;41221;3.0;7.0;29.0
104;105;Maria;Underwood;N;Female;(981) 465-3936;momi@obagaji.jp;37;Ofna Square;49;Cibehow;69885;3.0;8.0;26.0
105;106;Inez;Hart;N;Female;(851) 960-9230;ko@guowbe.ie;18;Orusem Point;42;Patazij;29725;;11.0;28.0
106;107;Linnie;Allison;N;Male;(366) 294-9430;jiwlaso@geka.id;33;Aghi Pike;.;Awulezi;4386;6.0;14.0;21.0
107;108;Catherine;Robinson;Y;Female;(763) 906-4839;suweka@cubpudva.tj;47;Dehug Park;58;Ravigut;59021;;14.0;11.0
108;109;Dylan;May;Y;Male;(345) 591-1749;lumo@tiwogi.ye;63;Hala Glen;41;Gifohkuh;71950;3.0;11.0;28.0
109;110;Mattie;Andrews;N;Female;(460) 369-7043;kufenpac@kehrodbe.cl;58;Volha Ridge;20;Jernirdo;10584;1.0;18.0;25.0
110;111;Millie;Thomas;Y;Female;(349) 983-4110;gah@kelaz.ms;23;Foedu Highway;28;Watusot;92700;10.0;9.0;3.0
111;112;Lucinda;Conner;Y;Male;(620) 392-7903;kunna@pavpevof.sb;28;Arkaf Pike;38;Jawbofka;80617;10.0;3.0;
112;113;Timothy;Horton;Y;Female;(474) 599-6601;vawi@mifbi.fk;29;Wareg Glen;30;Cipanfi;7685;3.0;19.0;
113;114;Sally;Jennings;Y;Female;(853) 352-7199;jozuji@doecisi.zw;46;Dejeb Street;40;Fuduin;14461;5.0;15.0;13.0
114;115;Bertie;Townsend;Y;Male;(759) 744-3013;bub@de.ax;36;Rufu Point;30;Acebap;67529;6.0;16.0;21.0
115;116;Phoebe;Stanley;N;Female;(840) 502-6511;nolhu@vaceta.jo;47;Ilhet Manor;22;Sivhoguh;49485;4.0;17.0;14.0
116;117;Adelaide;Wells;N;Female;(729) 488-4546;na@pecuv.qa;45;Pavpi River;20;Mitofu;23548;;3.0;18.0
117;118;Jacob;Wade;Y;Male;(482) 541-5462;liafdi@ezebojbe.au;33;Jikow Key;44;Dazamug;23464;8.0;11.0;
118;119;Marcus;Quinn;N;Male;(448) 692-5964;wa@nideba.in;29;Wakdut Path;26;Upgero;86757;3.0;4.0;23.0
119;120;Lillie;Lindsey;N;Male;(302) 334-8407;iwo@nuji.er;26;Apdo Lane;37;Bojfijzug;22302;1.0;18.0;23.0
120;121;Garrett;Jefferson;Y;Female;(547) 408-1495;bo@waaju.mr;46;Subrat River;52;Wagfelgis;81753;6.0;;8.0
121;122;Cody;Norris;N;Male;(754) 330-4579;pun@bemunuga.bt;38;Jorom Grove;44;Lazubnu;65446;9.0;11.0;28.0
122;123;Justin;Kim;N;Male;(200) 921-7083;mumutu@cabud.bm;46;Jotpi River;39;Litrupe;85066;2.0;10.0;22.0
123;124;Floyd;Hall;Y;Female;(379) 217-9682;devden@jugezja.ga;30;Gefla Place;41;Jowicozaz;38973;9.0;13.0;3.0
124;125;Glen;Porter;N;Female;(337) 565-5773;zaz@laj.mp;55;Kololu Ridge;26;Awawoos;73120;4.0;10.0;11.0
125;126;Leon;Porter;N;Male;(215) 907-1968;luus@sume.co;57;Nona Turnpike;22;Acimadol;92741;6.0;1.0;13.0
126;127;Harriet;Johnston;Y;Female;(717) 958-4578;leb@sosnuvbup.bs;51;Bemube Drive;61;Cezual;96963;2.0;5.0;13.0
127;128;Melvin;Byrd;Y;Female;(563) 561-4907;ro@alauf.fi;62;Zigok Way;41;Fitikpo;58597;1.0;16.0;27.0
128;129;Randy;Porter;no;Male;(984) 531-5834;delinhu@waber.eh;19;Uhhet Turnpike;29;Sahipu;14152;9.0;10.0;7.0
129;130;Noah;Powell;Y;Female;(633) 541-3323;nejel@acuazru.pg;57;Mepci River;28;Gigimtef;6765;1.0;12.0;6.0
130;131;Michael;Carter;N;Female;(371) 382-9482;tupibupo@ijipale.bg;32;Iloduk Lane;31;Toghiwwa;44352;4.0;12.0;13.0
131;132;Leonard;Harrison;N;Female;(205) 406-6973;iwiiteeg@lahpul.lv;45;Nigu Manor;52;Pionso;16459;1.0;13.0;19.0
132;133;Myrtie;Rodriquez;N;Male;(316) 364-5977;fivaficu@puhab.fk;29;Feoge Plaza;63;Ovikapmaz;68849;3.0;16.0;17.0
133;134;Millie;Thornton;Y;Male;(234) 803-2156;juf@uhucap.lt;53;Netle Junction;-;Ejkudo;73805;6.0;11.0;8.0
134;135;Amelia;Sullivan;Y;Female;(663) 688-1905;kohzejzi@hubokril.bo;51;Beslu Loop;19;Nuujelos;80322;3.0;3.0;24.0
135;136;Stephen;Mitchell;Y;Male;(440) 284-1498;tuzi@jugebu.sk;44;Edupa Square;46;Ujajida;20784;6.0;13.0;12.0
136;137;Laura;Hamilton;Y;Male;(358) 867-9484;gah@kurikof.hu;64;Vepa Street;46;Hijieh;17794;10.0;5.0;2.0
137;138;Marguerite ;Sims;Y;Female;(358) 867-9484;delinhu@waber.eh;24;Harac Plaza;46;Sednadi;31789;93.0;;
